STARLINK-31332          
1 59566U 24076C   26068.22127030 -.00001101  00000+0 -30487-4 0  9999
2 59566  43.0076  11.4224 0002172 266.0667  93.9936 15.27582085106438
TRANSPORTER-12 OBJECT BA
1 62657U 25009BA  26068.70118713  .00011330  00000+0  42733-3 0  9991
2 62657  97.3985 151.1390 0000403 234.6623 125.4579 15.27214003 63739
